[{"OBJECT_NAME":"STARLINK-5011","OBJECT_ID":"2022-119AR","EPOCH":"2026-03-09T21:47:57.243552","MEAN_MOTION":15.0882433,"ECCENTRICITY":0.00010101,"INCLINATION":53.2185,"RA_OF_ASC_NODE":312.7417,"ARG_OF_PERICENTER":75.2053,"MEAN_ANOMALY":284.9051,"EPHEMERIS_TYPE":0,"CLASSIFICATION_TYPE":"U","NORAD_CAT_ID":53925,"ELEMENT_SET_NO":999,"REV_AT_EPOCH":19186,"BSTAR":0.00014535131,"MEAN_MOTION_DOT":2.025e-5,"MEAN_MOTION_DDOT":0},{"OBJECT_NAME":"SL-8 DEB","OBJECT_ID":"1976-098E","EPOCH":"2026-03-09T08:07:12.416160","MEAN_MOTION":15.06605169,"ECCENTRICITY":0.00102283,"INCLINATION":74.028,"RA_OF_ASC_NODE":26.283,"ARG_OF_PERICENTER":218.296,"MEAN_ANOMALY":294.2383,"EPHEMERIS_TYPE":0,"CLASSIFICATION_TYPE":"U","NORAD_CAT_ID":18504,"ELEMENT_SET_NO":999,"REV_AT_EPOCH":18055,"BSTAR":0.0011587434,"MEAN_MOTION_DOT":0.00017191,"MEAN_MOTION_DDOT":0}]
